[{"OBJECT_NAME":"THURAYA-2","OBJECT_ID":"2003-026A","EPOCH":"2026-04-04T23:15:49.087296","MEAN_MOTION":1.00272822,"ECCENTRICITY":0.00035362,"INCLINATION":8.729,"RA_OF_ASC_NODE":32.2645,"ARG_OF_PERICENTER":329.6271,"MEAN_ANOMALY":224.3391,"EPHEMERIS_TYPE":0,"CLASSIFICATION_TYPE":"U","NORAD_CAT_ID":27825,"ELEMENT_SET_NO":999,"REV_AT_EPOCH":8361,"BSTAR":0,"MEAN_MOTION_DOT":1.27e-6,"MEAN_MOTION_DDOT":0},{"OBJECT_NAME":"BLOCK DM-SL R/B","OBJECT_ID":"2003-026B","EPOCH":"2026-04-04T16:27:30.101184","MEAN_MOTION":2.22050325,"ECCENTRICITY":0.69626792,"INCLINATION":5.7728,"RA_OF_ASC_NODE":95.7621,"ARG_OF_PERICENTER":266.3507,"MEAN_ANOMALY":34.0669,"EPHEMERIS_TYPE":0,"CLASSIFICATION_TYPE":"U","NORAD_CAT_ID":27826,"ELEMENT_SET_NO":999,"REV_AT_EPOCH":18516,"BSTAR":0,"MEAN_MOTION_DOT":-1.67e-6,"MEAN_MOTION_DDOT":0},{"OBJECT_NAME":"OPTUS C1","OBJECT_ID":"2003-028B","EPOCH":"2026-04-04T18:39:37.410912","MEAN_MOTION":1.00273154,"ECCENTRICITY":0.00063294,"INCLINATION":6.707,"RA_OF_ASC_NODE":70.2856,"ARG_OF_PERICENTER":305.8324,"MEAN_ANOMALY":252.619,"EPHEMERIS_TYPE":0,"CLASSIFICATION_TYPE":"U","NORAD_CAT_ID":27831,"ELEMENT_SET_NO":999,"REV_AT_EPOCH":5232,"BSTAR":0,"MEAN_MOTION_DOT":-1.48e-6,"MEAN_MOTION_DDOT":0},{"OBJECT_NAME":"ARIANE 5 R/B","OBJECT_ID":"2003-028C","EPOCH":"2026-04-04T17:33:47.917440","MEAN_MOTION":2.24842096,"ECCENTRICITY":0.71787516,"INCLINATION":6.6028,"RA_OF_ASC_NODE":148.0141,"ARG_OF_PERICENTER":245.5652,"MEAN_ANOMALY":27.4173,"EPHEMERIS_TYPE":0,"CLASSIFICATION_TYPE":"U","NORAD_CAT_ID":27832,"ELEMENT_SET_NO":999,"REV_AT_EPOCH":18740,"BSTAR":0.0013201895,"MEAN_MOTION_DOT":-1.9e-7,"MEAN_MOTION_DDOT":0},{"OBJECT_NAME":"ARIANE 5 DEB [SYLDA]","OBJECT_ID":"2003-028D","EPOCH":"2026-04-05T02:29:25.121472","MEAN_MOTION":2.26632238,"ECCENTRICITY":0.71605101,"INCLINATION":6.3365,"RA_OF_ASC_NODE":141.5237,"ARG_OF_PERICENTER":261.6649,"MEAN_ANOMALY":18.8324,"EPHEMERIS_TYPE":0,"CLASSIFICATION_TYPE":"U","NORAD_CAT_ID":27833,"ELEMENT_SET_NO":999,"REV_AT_EPOCH":18845,"BSTAR":0.0056049446,"MEAN_MOTION_DOT":3.69e-6,"MEAN_MOTION_DDOT":0},{"OBJECT_NAME":"BLOCK DM-SL R/B","OBJECT_ID":"2003-034B","EPOCH":"2026-04-05T04:21:31.669056","MEAN_MOTION":2.24673389,"ECCENTRICITY":0.71425309,"INCLINATION":0.9065,"RA_OF_ASC_NODE":338.5942,"ARG_OF_PERICENTER":233.2186,"MEAN_ANOMALY":352.8508,"EPHEMERIS_TYPE":0,"CLASSIFICATION_TYPE":"U","NORAD_CAT_ID":27855,"ELEMENT_SET_NO":999,"REV_AT_EPOCH":18606,"BSTAR":0.0003847979,"MEAN_MOTION_DOT":-1.44e-6,"MEAN_MOTION_DDOT":0},{"OBJECT_NAME":"USA 170","OBJECT_ID":"2003-040A","EPOCH":"2026-04-05T00:52:46.732800","MEAN_MOTION":1.00273946,"ECCENTRICITY":0.00022221,"INCLINATION":10.3467,"RA_OF_ASC_NODE":48.6275,"ARG_OF_PERICENTER":13.6133,"MEAN_ANOMALY":168.395,"EPHEMERIS_TYPE":0,"CLASSIFICATION_TYPE":"U","NORAD_CAT_ID":27875,"ELEMENT_SET_NO":999,"REV_AT_EPOCH":3226,"BSTAR":0,"MEAN_MOTION_DOT":1.29e-6,"MEAN_MOTION_DDOT":0},{"OBJECT_NAME":"IABS R/B","OBJECT_ID":"2003-040C","EPOCH":"2026-04-04T00:56:39.203232","MEAN_MOTION":1.00732397,"ECCENTRICITY":0.0011981,"INCLINATION":13.3325,"RA_OF_ASC_NODE":13.0069,"ARG_OF_PERICENTER":318.961,"MEAN_ANOMALY":40.9072,"EPHEMERIS_TYPE":0,"CLASSIFICATION_TYPE":"U","NORAD_CAT_ID":27877,"ELEMENT_SET_NO":999,"REV_AT_EPOCH":2520,"BSTAR":0,"MEAN_MOTION_DOT":3.0e-8,"MEAN_MOTION_DDOT":0},{"OBJECT_NAME":"COSMOS 917 DEB","OBJECT_ID":"1977-047F","EPOCH":"2026-04-04T14:36:38.127168","MEAN_MOTION":2.02141963,"ECCENTRICITY":0.7422536,"INCLINATION":60.2352,"RA_OF_ASC_NODE":233.5507,"ARG_OF_PERICENTER":52.6764,"MEAN_ANOMALY":354.003,"EPHEMERIS_TYPE":0,"CLASSIFICATION_TYPE":"U","NORAD_CAT_ID":27883,"ELEMENT_SET_NO":999,"REV_AT_EPOCH":17391,"BSTAR":0.00089909,"MEAN_MOTION_DOT":1.198e-5,"MEAN_MOTION_DDOT":0},{"OBJECT_NAME":"COSMOS 917 DEB","OBJECT_ID":"1977-047G","EPOCH":"2026-04-05T03:59:23.224128","MEAN_MOTION":2.01795187,"ECCENTRICITY":0.74322651,"INCLINATION":59.9967,"RA_OF_ASC_NODE":222.5677,"ARG_OF_PERICENTER":64.386,"MEAN_ANOMALY":352.2405,"EPHEMERIS_TYPE":0,"CLASSIFICATION_TYPE":"U","NORAD_CAT_ID":27884,"ELEMENT_SET_NO":999,"REV_AT_EPOCH":17240,"BSTAR":0.0010327257,"MEAN_MOTION_DOT":-1.21e-6,"MEAN_MOTION_DDOT":0},{"OBJECT_NAME":"COSMOS 917 DEB","OBJECT_ID":"1977-047K","EPOCH":"2026-03-08T12:37:38.717184","MEAN_MOTION":1.97913515,"ECCENTRICITY":0.6628392,"INCLINATION":63.4034,"RA_OF_ASC_NODE":245.6676,"ARG_OF_PERICENTER":10.4409,"MEAN_ANOMALY":2.5908,"EPHEMERIS_TYPE":0,"CLASSIFICATION_TYPE":"U","NORAD_CAT_ID":27887,"ELEMENT_SET_NO":999,"REV_AT_EPOCH":2600,"BSTAR":0,"MEAN_MOTION_DOT":5.01e-6,"MEAN_MOTION_DDOT":0},{"OBJECT_NAME":"COSMOS 917 DEB","OBJECT_ID":"1977-047L","EPOCH":"2026-04-04T11:46:09.711552","MEAN_MOTION":2.02039841,"ECCENTRICITY":0.74104425,"INCLINATION":60.2936,"RA_OF_ASC_NODE":239.4786,"ARG_OF_PERICENTER":52.5103,"MEAN_ANOMALY":353.9931,"EPHEMERIS_TYPE":0,"CLASSIFICATION_TYPE":"U","NORAD_CAT_ID":27888,"ELEMENT_SET_NO":999,"REV_AT_EPOCH":21671,"BSTAR":0.00080574278,"MEAN_MOTION_DOT":1.102e-5,"MEAN_MOTION_DDOT":0},{"OBJECT_NAME":"COSMOS 1191 DEB","OBJECT_ID":"1980-057K","EPOCH":"2026-04-05T00:00:12.122784","MEAN_MOTION":1.99260707,"ECCENTRICITY":0.73494004,"INCLINATION":63.0741,"RA_OF_ASC_NODE":4.4945,"ARG_OF_PERICENTER":44.9098,"MEAN_ANOMALY":354.7781,"EPHEMERIS_TYPE":0,"CLASSIFICATION_TYPE":"U","NORAD_CAT_ID":27897,"ELEMENT_SET_NO":999,"REV_AT_EPOCH":16852,"BSTAR":0,"MEAN_MOTION_DOT":-5.23e-6,"MEAN_MOTION_DDOT":0},{"OBJECT_NAME":"COSMOS 1191 DEB","OBJECT_ID":"1980-057L","EPOCH":"2026-04-03T21:46:15.010752","MEAN_MOTION":1.99646855,"ECCENTRICITY":0.69772756,"INCLINATION":64.7315,"RA_OF_ASC_NODE":63.4876,"ARG_OF_PERICENTER":31.4196,"MEAN_ANOMALY":355.6017,"EPHEMERIS_TYPE":0,"CLASSIFICATION_TYPE":"U","NORAD_CAT_ID":27898,"ELEMENT_SET_NO":999,"REV_AT_EPOCH":4146,"BSTAR":0,"MEAN_MOTION_DOT":-2.91e-6,"MEAN_MOTION_DDOT":0},{"OBJECT_NAME":"COSMOS 1382 DEB","OBJECT_ID":"1982-064G","EPOCH":"2026-04-04T10:00:07.232832","MEAN_MOTION":2.00222476,"ECCENTRICITY":0.71580206,"INCLINATION":62.22,"RA_OF_ASC_NODE":178.5868,"ARG_OF_PERICENTER":38.239,"MEAN_ANOMALY":1.8778,"EPHEMERIS_TYPE":0,"CLASSIFICATION_TYPE":"U","NORAD_CAT_ID":27905,"ELEMENT_SET_NO":999,"REV_AT_EPOCH":18340,"BSTAR":0,"MEAN_MOTION_DOT":8.61e-6,"MEAN_MOTION_DDOT":0},{"OBJECT_NAME":"TITAN 4B CENTAUR R/B","OBJECT_ID":"2003-041B","EPOCH":"2026-04-04T09:10:36.076800","MEAN_MOTION":1.0086229,"ECCENTRICITY":0.00312348,"INCLINATION":15.5096,"RA_OF_ASC_NODE":38.1138,"ARG_OF_PERICENTER":111.9922,"MEAN_ANOMALY":248.2956,"EPHEMERIS_TYPE":0,"CLASSIFICATION_TYPE":"U","NORAD_CAT_ID":27938,"ELEMENT_SET_NO":999,"REV_AT_EPOCH":2420,"BSTAR":0,"MEAN_MOTION_DOT":-1.6e-6,"MEAN_MOTION_DDOT":0},{"OBJECT_NAME":"ARIANE 5 R/B","OBJECT_ID":"2003-043B","EPOCH":"2026-04-04T22:11:56.249376","MEAN_MOTION":2.23563454,"ECCENTRICITY":0.7174613,"INCLINATION":8.1407,"RA_OF_ASC_NODE":356.893,"ARG_OF_PERICENTER":48.1898,"MEAN_ANOMALY":353.7005,"EPHEMERIS_TYPE":0,"CLASSIFICATION_TYPE":"U","NORAD_CAT_ID":27946,"ELEMENT_SET_NO":999,"REV_AT_EPOCH":18397,"BSTAR":0.0013637517,"MEAN_MOTION_DOT":-6.6e-7,"MEAN_MOTION_DDOT":0}]
