THURAYA-2               
1 27825U 03026A   26094.96931814  .00000127  00000+0  00000+0 0  9995
2 27825   8.7290  32.2645 0003536 329.6271 224.3391  1.00272822 83617
BLOCK DM-SL R/B         
1 27826U 03026B   26094.68576506 -.00000167  00000+0  00000+0 0  9993
2 27826   5.7728  95.7621 6962679 266.3507  34.0669  2.22050325185160
OPTUS C1                
1 27831U 03028B   26094.77751633 -.00000148  00000+0  00000+0 0  9996
2 27831   6.7070  70.2856 0006329 305.8324 252.6190  1.00273154 52326
ARIANE 5 R/B            
1 27832U 03028C   26094.73180460 -.00000019  00000+0  13202-2 0  9995
2 27832   6.6028 148.0141 7178751 245.5652  27.4173  2.24842096187401
ARIANE 5 DEB [SYLDA]    
1 27833U 03028D   26095.10376298  .00000369  00000+0  56049-2 0  9997
2 27833   6.3365 141.5237 7160510 261.6649  18.8324  2.26632238188451
BLOCK DM-SL R/B         
1 27855U 03034B   26095.18161654 -.00000144  00000+0  38480-3 0  9996
2 27855   0.9065 338.5942 7142530 233.2186 352.8508  2.24673389186066
USA 170                 
1 27875U 03040A   26095.03665200  .00000129  00000+0  00000+0 0  9990
2 27875  10.3467  48.6275 0002222  13.6133 168.3950  1.00273946 32266
IABS R/B                
1 27877U 03040C   26094.03934263  .00000003  00000+0  00000+0 0  9990
2 27877  13.3325  13.0069 0011981 318.9610  40.9072  1.00732397 25200
COSMOS 917 DEB          
1 27883U 77047F   26094.60877462  .00001198  00000+0  89909-3 0  9990
2 27883  60.2352 233.5507 7422536  52.6764 354.0030  2.02141963173916
COSMOS 917 DEB          
1 27884U 77047G   26095.16624102 -.00000121  00000+0  10327-2 0  9997
2 27884  59.9967 222.5677 7432265  64.3860 352.2405  2.01795187172408
COSMOS 917 DEB          
1 27887U 77047K   26067.52614256  .00000501  00000+0  00000+0 0  9993
2 27887  63.4034 245.6676 6628392  10.4409   2.5908  1.97913515 26007
COSMOS 917 DEB          
1 27888U 77047L   26094.49039018  .00001102  00000+0  80574-3 0  9993
2 27888  60.2936 239.4786 7410442  52.5103 353.9931  2.02039841216717
COSMOS 1191 DEB         
1 27897U 80057K   26095.00014031 -.00000523  00000+0  00000+0 0  9993
2 27897  63.0741   4.4945 7349400  44.9098 354.7781  1.99260707168521
COSMOS 1191 DEB         
1 27898U 80057L   26093.90711818 -.00000291  00000+0  00000+0 0  9990
2 27898  64.7315  63.4876 6977275  31.4196 355.6017  1.99646855 41468
COSMOS 1382 DEB         
1 27905U 82064G   26094.41675038  .00000861  00000+0  00000+0 0  9991
2 27905  62.2200 178.5868 7158020  38.2390   1.8778  2.00222476183400
TITAN 4B CENTAUR R/B    
1 27938U 03041B   26094.38236200 -.00000160  00000+0  00000+0 0  9998
2 27938  15.5096  38.1138 0031234 111.9922 248.2956  1.00862290 24201
ARIANE 5 R/B            
1 27946U 03043B   26094.92495659 -.00000066  00000+0  13638-2 0  9993
2 27946   8.1407 356.8930 7174613  48.1898 353.7005  2.23563454183976
